ONEWEB-0144             
1 47290U 20100AJ  24225.43017689 -.00000172  00000+0 -51212-3 0  9993
2 47290  87.8935 124.8341 0001885  87.8007 272.3338 13.12442769176190
ONEWEB-0145             
1 47291U 20100AK  24225.47722177  .00000422  00000+0  11366-2 0  9994
2 47291  87.8937 124.8488 0001856  81.1525 278.9814 13.12443213176393
ONEWEB-0146             
1 47292U 20100AL  24225.47398179  .00000329  00000+0  87833-3 0  9995
2 47292  87.8937 124.8336 0001923  63.3974 296.7351 13.12443089176307
ONEWEB-0147             
1 47293U 20100AM  24225.43990589 -.00000391  00000+0 -11210-2 0  9991
2 47293  87.8933 124.8322 0001566  80.0761 280.0544 13.12443143176190
ONEWEB-0115             
1 48042U 21025A   24225.61311084  .00000148  00000+0  37124-3 0  9999
2 48042  87.8881  94.2913 0001692  75.5272 284.6044 13.13469347165184
ONEWEB-0152             
1 48043U 21025B   24225.39727310  .00000365  00000+0  96358-3 0  9993
2 48043  87.8886  94.3343 0001695  77.6162 282.5157 13.13469612165101
ONEWEB-0153             
1 48044U 21025C   24225.60358872 -.00000139  00000+0 -41579-3 0  9997
2 48044  87.8887  94.2824 0001782  82.2603 277.8728 13.13469681165135
ONEWEB-0154             
1 48045U 21025D   24225.60041394 -.00000175  00000+0 -51539-3 0  9993
2 48045  87.8884  94.2927 0001694  80.1684 279.9636 13.13469878165099
